[{"OBJECT_NAME":"BLACKJACK ACES-1","OBJECT_ID":"2023-084AA","EPOCH":"2026-03-09T22:24:50.908320","MEAN_MOTION":15.20540974,"ECCENTRICITY":7.823e-5,"INCLINATION":97.6017,"RA_OF_ASC_NODE":203.3151,"ARG_OF_PERICENTER":68.3713,"MEAN_ANOMALY":291.7605,"EPHEMERIS_TYPE":0,"CLASSIFICATION_TYPE":"U","NORAD_CAT_ID":56956,"ELEMENT_SET_NO":999,"REV_AT_EPOCH":10183,"BSTAR":0.00045011907,"MEAN_MOTION_DOT":9.783e-5,"MEAN_MOTION_DDOT":0},{"OBJECT_NAME":"STRIX-3","OBJECT_ID":"2024-047A","EPOCH":"2026-03-09T22:36:43.864704","MEAN_MOTION":15.17646985,"ECCENTRICITY":0.00153398,"INCLINATION":97.656,"RA_OF_ASC_NODE":43.3231,"ARG_OF_PERICENTER":51.5909,"MEAN_ANOMALY":308.6699,"EPHEMERIS_TYPE":0,"CLASSIFICATION_TYPE":"U","NORAD_CAT_ID":59224,"ELEMENT_SET_NO":999,"REV_AT_EPOCH":10968,"BSTAR":0.00061996741,"MEAN_MOTION_DOT":0.00012457,"MEAN_MOTION_DDOT":0}]
